start=new Date('2022-01-10T00:00:00.000Z').valueOf();
sats=[{"CLASSIFICATION_TYPE":"U","SEMIMAJOR_AXIS":"6925.352","REF_FRAME":"TEME","COUNTRY_CODE":"US","TLE_LINE2":"2 47597  53.0545  24.8920 0001661  70.1195 289.9973 15.06399022 51424","OBJECT_ID":"2021-009BB","CENTER_NAME":"EARTH","RCS_SIZE":"LARGE","PERIOD":"95.592","MEAN_MOTION_DOT":"0.00000128","DECAY_DATE":null,"MEAN_ANOMALY":"289.9973","OBJECT_TYPE":"PAYLOAD","APOAPSIS":"548.367","ARG_OF_PERICENTER":"70.1195","EPOCH":"2022-01-09T18:04:23.615040","RA_OF_ASC_NODE":"24.8920","MEAN_MOTION_DDOT":"0.0000000000000","OBJECT_NAME":"STARLINK-2002","FILE":"3268323","TIME_SYSTEM":"UTC","ELEMENT_SET_NO":"999","BSTAR":"0.00002750400000","NORAD_CAT_ID":"47597","REV_AT_EPOCH":"5142","LAUNCH_DATE":"2021-02-04","GP_ID":"193559137","ECCENTRICITY":"0.00016610","MEAN_ELEMENT_THEORY":"SGP4","INCLINATION":"53.0545","SITE":"AFETR","TLE_LINE1":"1 47597U 21009BB  22009.75305110  .00000128  00000-0  27504-4 0  9992","PERIAPSIS":"546.066","EPHEMERIS_TYPE":"0","MEAN_MOTION":"15.06399022"},{"COUNTRY_CODE":"US","TLE_LINE2":"2 47598  53.0568 356.6243 0001809  66.1369 293.9810 15.06405390 51797","CLASSIFICATION_TYPE":"U","REF_FRAME":"TEME","SEMIMAJOR_AXIS":"6925.332","MEAN_ANOMALY":"293.9810","APOAPSIS":"548.450","OBJECT_TYPE":"PAYLOAD","ARG_OF_PERICENTER":"66.1369","EPOCH":"2022-01-09T08:45:44.896608","OBJECT_ID":"2021-009BC","CENTER_NAME":"EARTH","RCS_SIZE":"LARGE","PERIOD":"95.592","MEAN_MOTION_DOT":"0.00000107","DECAY_DATE":null,"NORAD_CAT_ID":"47598","BSTAR":"0.00002610800000","REV_AT_EPOCH":"5179","RA_OF_ASC_NODE":"356.6243","MEAN_MOTION_DDOT":"0.0000000000000","OBJECT_NAME":"STARLINK-2003","FILE":"3268062","ELEMENT_SET_NO":"999","TIME_SYSTEM":"UTC","PERIAPSIS":"545.944","TLE_LINE1":"1 47598U 21009BC  22009.36510297  .00000107  00000-0  26108-4 0  9990","MEAN_MOTION":"15.06405390","EPHEMERIS_TYPE":"0","LAUNCH_DATE":"2021-02-04","GP_ID":"193526802","ECCENTRICITY":"0.00018090","SITE":"AFETR","INCLINATION":"53.0568","MEAN_ELEMENT_THEORY":"SGP4"},{"COUNTRY_CODE":"US","TLE_LINE2":"2 47599  53.0571 345.4821 0001686  61.6163 298.4996 15.06406485 51965","CLASSIFICATION_TYPE":"U","REF_FRAME":"TEME","SEMIMAJOR_AXIS":"6925.329","APOAPSIS":"548.361","OBJECT_TYPE":"PAYLOAD","MEAN_ANOMALY":"298.4996","EPOCH":"2022-01-09T14:53:18.068928","ARG_OF_PERICENTER":"61.6163","RCS_SIZE":"LARGE","CENTER_NAME":"EARTH","PERIOD":"95.592","OBJECT_ID":"2021-009BD","DECAY_DATE":null,"MEAN_MOTION_DOT":"0.00000248","NORAD_CAT_ID":"47599","BSTAR":"0.00003552600000","REV_AT_EPOCH":"5196","OBJECT_NAME":"STARLINK-2004","RA_OF_ASC_NODE":"345.4821","MEAN_MOTION_DDOT":"0.0000000000000","ELEMENT_SET_NO":"999","FILE":"3268323","TIME_SYSTEM":"UTC","MEAN_MOTION":"15.06406485","EPHEMERIS_TYPE":"0","PERIAPSIS":"546.026","TLE_LINE1":"1 47599U 21009BD  22009.62034802  .00000248  00000-0  35526-4 0  9993","GP_ID":"193558153","LAUNCH_DATE":"2021-02-04","SITE":"AFETR","INCLINATION":"53.0571","MEAN_ELEMENT_THEORY":"SGP4","ECCENTRICITY":"0.00016860"},{"OBJECT_NAME":"STARLINK-2005","MEAN_MOTION_DDOT":"0.0000000000000","RA_OF_ASC_NODE":"345.3548","FILE":"3268323","ELEMENT_SET_NO":"999","TIME_SYSTEM":"UTC","NORAD_CAT_ID":"47600","BSTAR":"0.00003404100000","REV_AT_EPOCH":"5197","GP_ID":"193558905","LAUNCH_DATE":"2021-02-04","INCLINATION":"53.0566","SITE":"AFETR","MEAN_ELEMENT_THEORY":"SGP4","ECCENTRICITY":"0.00072160","MEAN_MOTION":"15.06400069","EPHEMERIS_TYPE":"0","TLE_LINE1":"1 47600U 21009BE  22009.64891268  .00000223  00000-0  34041-4 0  9999","PERIAPSIS":"542.216","CLASSIFICATION_TYPE":"U","REF_FRAME":"TEME","SEMIMAJOR_AXIS":"6925.348","COUNTRY_CODE":"US","TLE_LINE2":"2 47600  53.0566 345.3548 0007216  66.5390 293.6357 15.06400069 51979","RCS_SIZE":"LARGE","PERIOD":"95.592","CENTER_NAME":"EARTH","OBJECT_ID":"2021-009BE","DECAY_DATE":null,"MEAN_MOTION_DOT":"0.00000223","APOAPSIS":"552.211","OBJECT_TYPE":"PAYLOAD","MEAN_ANOMALY":"293.6357","EPOCH":"2022-01-09T15:34:26.055552","ARG_OF_PERICENTER":"66.5390"},{"ARG_OF_PERICENTER":"63.7295","EPOCH":"2022-01-09T14:58:37.236576","MEAN_ANOMALY":"296.3871","APOAPSIS":"548.399","OBJECT_TYPE":"PAYLOAD","DECAY_DATE":null,"MEAN_MOTION_DOT":"0.00002207","OBJECT_ID":"2021-009BF","PERIOD":"95.592","RCS_SIZE":"LARGE","CENTER_NAME":"EARTH","TLE_LINE2":"2 47601  53.0575 345.4615 0001724  63.7295 296.3871 15.06402720 51963","COUNTRY_CODE":"US","REF_FRAME":"TEME","SEMIMAJOR_AXIS":"6925.340","CLASSIFICATION_TYPE":"U","PERIAPSIS":"546.011","TLE_LINE1":"1 47601U 21009BF  22009.62404209  .00002207  00000-0  16701-3 0  9999","MEAN_MOTION":"15.06402720","EPHEMERIS_TYPE":"0","ECCENTRICITY":"0.00017240","SITE":"AFETR","INCLINATION":"53.0575","MEAN_ELEMENT_THEORY":"SGP4","LAUNCH_DATE":"2021-02-04","GP_ID":"193558638","REV_AT_EPOCH":"5196","NORAD_CAT_ID":"47601","BSTAR":"0.00016701000000","TIME_SYSTEM":"UTC","FILE":"3268323","ELEMENT_SET_NO":"999","RA_OF_ASC_NODE":"345.4615","MEAN_MOTION_DDOT":"0.0000000000000","OBJECT_NAME":"STARLINK-2006"},{"MEAN_MOTION":"15.06401495","EPHEMERIS_TYPE":"0","PERIAPSIS":"546.021","TLE_LINE1":"1 47602U 21009BG  22009.64523538 -.00000374  00000-0 -62153-5 0  9998","GP_ID":"193557404","LAUNCH_DATE":"2021-02-04","SITE":"AFETR","INCLINATION":"53.0570","MEAN_ELEMENT_THEORY":"SGP4","ECCENTRICITY":"0.00017150","NORAD_CAT_ID":"47602","BSTAR":"-0.00000621530000","REV_AT_EPOCH":"5182","OBJECT_NAME":"STARLINK-2007","MEAN_MOTION_DDOT":"0.0000000000000","RA_OF_ASC_NODE":"355.3556","FILE":"3268323","ELEMENT_SET_NO":"999","TIME_SYSTEM":"UTC","APOAPSIS":"548.397","OBJECT_TYPE":"PAYLOAD","MEAN_ANOMALY":"293.0166","EPOCH":"2022-01-09T15:29:08.336832","ARG_OF_PERICENTER":"67.1004","PERIOD":"95.592","RCS_SIZE":"LARGE","CENTER_NAME":"EARTH","OBJECT_ID":"2021-009BG","MEAN_MOTION_DOT":"-0.00000374","DECAY_DATE":null,"COUNTRY_CODE":"US","TLE_LINE2":"2 47602  53.0570 355.3556 0001715  67.1004 293.0166 15.06401495 51823","CLASSIFICATION_TYPE":"U","REF_FRAME":"TEME","SEMIMAJOR_AXIS":"6925.344"},{"OBJECT_NAME":"STARLINK-2008","MEAN_MOTION_DDOT":"0.0000000000000","RA_OF_ASC_NODE":"26.1945","ELEMENT_SET_NO":"999","FILE":"3268062","TIME_SYSTEM":"UTC","NORAD_CAT_ID":"47603","BSTAR":"0.00015777000000","REV_AT_EPOCH":"5137","GP_ID":"193527552","LAUNCH_DATE":"2021-02-04","INCLINATION":"53.0563","SITE":"AFETR","MEAN_ELEMENT_THEORY":"SGP4","ECCENTRICITY":"0.00015830","MEAN_MOTION":"15.06406986","EPHEMERIS_TYPE":"0","PERIAPSIS":"546.096","TLE_LINE1":"1 47603U 21009BH  22009.45817387  .00002070  00000-0  15777-3 0  9997","CLASSIFICATION_TYPE":"U","REF_FRAME":"TEME","SEMIMAJOR_AXIS":"6925.327","COUNTRY_CODE":"US","TLE_LINE2":"2 47603  53.0563  26.1945 0001583  57.1446 302.9695 15.06406986 51370","PERIOD":"95.592","RCS_SIZE":"LARGE","CENTER_NAME":"EARTH","OBJECT_ID":"2021-009BH","DECAY_DATE":null,"MEAN_MOTION_DOT":"0.00002070","APOAPSIS":"548.288","OBJECT_TYPE":"PAYLOAD","MEAN_ANOMALY":"302.9695","EPOCH":"2022-01-09T10:59:46.222368","ARG_OF_PERICENTER":"57.1446"},{"FILE":"3268323","ELEMENT_SET_NO":"999","TIME_SYSTEM":"UTC","RA_OF_ASC_NODE":"355.3302","MEAN_MOTION_DDOT":"0.0000000000000","OBJECT_NAME":"STARLINK-2021","REV_AT_EPOCH":"5183","BSTAR":"0.00013036000000","NORAD_CAT_ID":"47604","ECCENTRICITY":"0.00017370","MEAN_ELEMENT_THEORY":"SGP4","INCLINATION":"53.0555","SITE":"AFETR","LAUNCH_DATE":"2021-02-04","GP_ID":"193558406","TLE_LINE1":"1 47604U 21009BJ  22009.65260461  .00001661  00000-0  13036-3 0  9996","PERIAPSIS":"545.994","EPHEMERIS_TYPE":"0","MEAN_MOTION":"15.06405312","SEMIMAJOR_AXIS":"6925.332","REF_FRAME":"TEME","CLASSIFICATION_TYPE":"U","TLE_LINE2":"2 47604  53.0555 355.3302 0001737  70.3336 289.7841 15.06405312 51830","COUNTRY_CODE":"US","MEAN_MOTION_DOT":"0.00001661","DECAY_DATE":null,"OBJECT_ID":"2021-009BJ","CENTER_NAME":"EARTH","RCS_SIZE":"LARGE","PERIOD":"95.592","ARG_OF_PERICENTER":"70.3336","EPOCH":"2022-01-09T15:39:45.038304","MEAN_ANOMALY":"289.7841","OBJECT_TYPE":"PAYLOAD","APOAPSIS":"548.400"},{"MEAN_MOTION":"15.59815826","EPHEMERIS_TYPE":"0","PERIAPSIS":"385.721","TLE_LINE1":"1 47605U 21009BK  22009.20710572  .00028426  00000-0  35274-3 0  9997","INCLINATION":"53.0515","SITE":"AFETR","MEAN_ELEMENT_THEORY":"SGP4","ECCENTRICITY":"0.00036520","GP_ID":"193498121","LAUNCH_DATE":"2021-02-04","REV_AT_EPOCH":"5253","NORAD_CAT_ID":"47605","BSTAR":"0.00035274000000","ELEMENT_SET_NO":"999","FILE":"3267689","TIME_SYSTEM":"UTC","OBJECT_NAME":"STARLINK-2023","RA_OF_ASC_NODE":"344.8020","MEAN_MOTION_DDOT":"0.0000000000000","EPOCH":"2022-01-09T04:58:13.934208","ARG_OF_PERICENTER":"77.4271","APOAPSIS":"390.663","OBJECT_TYPE":"PAYLOAD","MEAN_ANOMALY":"282.7150","DECAY_DATE":null,"MEAN_MOTION_DOT":"0.00028426","CENTER_NAME":"EARTH","RCS_SIZE":"LARGE","PERIOD":"92.319","OBJECT_ID":"2021-009BK","TLE_LINE2":"2 47605  53.0515 344.8020 0003652  77.4271 282.7150 15.59815826 52538","COUNTRY_CODE":"US","REF_FRAME":"TEME","SEMIMAJOR_AXIS":"6766.327","CLASSIFICATION_TYPE":"U"},{"OBJECT_NAME":"STARLINK-2024","MEAN_MOTION_DDOT":"0.0000000000000","RA_OF_ASC_NODE":"354.4122","TIME_SYSTEM":"UTC","FILE":"3268323","ELEMENT_SET_NO":"999","NORAD_CAT_ID":"47606","BSTAR":"-0.00051362000000","REV_AT_EPOCH":"5186","GP_ID":"193557904","LAUNCH_DATE":"2021-02-04","SITE":"AFETR","INCLINATION":"53.0583","MEAN_ELEMENT_THEORY":"SGP4","ECCENTRICITY":"0.00017360","MEAN_MOTION":"15.06442015","EPHEMERIS_TYPE":"0","PERIAPSIS":"545.883","TLE_LINE1":"1 47606U 21009BL  22009.85531990 -.00007932  00000-0 -51362-3 0  9991","CLASSIFICATION_TYPE":"U","REF_FRAME":"TEME","SEMIMAJOR_AXIS":"6925.220","COUNTRY_CODE":"US","TLE_LINE2":"2 47606  53.0583 354.4122 0001736  67.1058 293.0114 15.06442015 51862","PERIOD":"95.589","RCS_SIZE":"LARGE","CENTER_NAME":"EARTH","OBJECT_ID":"2021-009BL","DECAY_DATE":null,"MEAN_MOTION_DOT":"-0.00007932","APOAPSIS":"548.287","OBJECT_TYPE":"PAYLOAD","MEAN_ANOMALY":"293.0114","EPOCH":"2022-01-09T20:31:39.639360","ARG_OF_PERICENTER":"67.1058"}];
